{
    "links": {
        "self": "http://www.neowsapp.com/rest/v1/neo/54016785?api_key=iIulBulltgU6a56xZRHN4H3l9WmuAYTsLGpBGhQ2"
    },
    "id": "54016785",
    "neo_reference_id": "54016785",
    "name": "(2020 HP7)",
    "designation": "2020 HP7",
    "nasa_jpl_url": "http://ssd.jpl.nasa.gov/sbdb.cgi?sstr=54016785",
    "absolute_magnitude_h": 24.01,
    "estimated_diameter": {
        "kilometers": {
            "estimated_diameter_min": 0.0419329075,
            "estimated_diameter_max": 0.0937648318
        },
        "meters": {
            "estimated_diameter_min": 41.9329075486,
            "estimated_diameter_max": 93.7648317729
        },
        "miles": {
            "estimated_diameter_min": 0.0260558927,
            "estimated_diameter_max": 0.0582627473
        },
        "feet": {
            "estimated_diameter_min": 137.5751604018,
            "estimated_diameter_max": 307.6274106738
        }
    },
    "is_potentially_hazardous_asteroid": false,
    "close_approach_data": [
        {
            "close_approach_date": "2020-05-02",
            "close_approach_date_full": "2020-May-02 20:03",
            "epoch_date_close_approach": 1588449780000,
            "relative_velocity": {
                "kilometers_per_second": "9.3210480918",
                "kilometers_per_hour": "33555.7731304644",
                "miles_per_hour": "20850.2524765377"
            },
            "miss_distance": {
                "astronomical": "0.094206338",
                "lunar": "36.646265482",
                "kilometers": "14093067.50530006",
                "miles": "8757026.079098428"
            },
            "orbiting_body": "Earth"
        },
        {
            "close_approach_date": "2020-09-23",
            "close_approach_date_full": "2020-Sep-23 12:56",
            "epoch_date_close_approach": 1600865760000,
            "relative_velocity": {
                "kilometers_per_second": "7.8789040634",
                "kilometers_per_hour": "28364.0546283454",
                "miles_per_hour": "17624.320499485"
            },
            "miss_distance": {
                "astronomical": "0.2516336175",
                "lunar": "97.8854772075",
                "kilometers": "37643853.198394725",
                "miles": "23390805.731408205"
            },
            "orbiting_body": "Earth"
        }
    ],
    "orbital_data": {
        "orbit_id": "4",
        "orbit_determination_date": "2020-05-13 06:11:46",
        "first_observation_date": "2020-04-26",
        "last_observation_date": "2020-05-13",
        "data_arc_in_days": 17,
        "observations_used": 33,
        "orbit_uncertainty": "8",
        "minimum_orbit_intersection": ".0788158",
        "jupiter_tisserand_invariant": "5.131",
        "epoch_osculation": "2458968.5",
        "eccentricity": ".1734642962539057",
        "semi_major_axis": "1.23848963867005",
        "inclination": "14.74672738306669",
        "ascending_node_longitude": "215.3626026974472",
        "orbital_period": "503.4275670196567",
        "perihelion_distance": "1.023655905080396",
        "perihelion_argument": "56.69894280933137",
        "aphelion_distance": "1.453323372259704",
        "perihelion_time": "2459018.830730581929",
        "mean_anomaly": "324.0085998532795",
        "mean_motion": ".7150979079894993",
        "equinox": "J2000",
        "orbit_class": {
            "orbit_class_type": "AMO",
            "orbit_class_description": "Near-Earth asteroid orbits similar to that of 1221 Amor",
            "orbit_class_range": "1.017 AU < q (perihelion) < 1.3 AU"
        }
    },
    "is_sentry_object": false
}